NORAD_CAT_ID,OBJECT_NAME,H0,DIST_H0,H_DIST_MIN,PT_DIST_MIN,DIST_MIN,HF,N_PT,DIST_HF,RCS,CCSDS_OMM_VERS,COMMENT,CREATION_DATE,ORIGINATOR,OBJECT_ID,CENTER_NAME,REF_FRAME,TIME_SYSTEM,MEAN_ELEMENT_THEORY,EPOCH,MEAN_MOTION,ECCENTRICITY,INCLINATION,RA_OF_ASC_NODE,ARG_OF_PERICENTER,MEAN_ANOMALY,EPHEMERIS_TYPE,CLASSIFICATION_TYPE,ELEMENT_SET_NO,REV_AT_EPOCH,BSTAR,MEAN_MOTION_DOT,MEAN_MOTION_DDOT,SEMIMAJOR_AXIS,PERIOD,APOAPSIS,PERIAPSIS,OBJECT_TYPE,RCS_SIZE,COUNTRY_CODE,LAUNCH_DATE,SITE,DECAY_DATE,FILE,GP_ID,TLE_LINE0,TLE_LINE1,TLE_LINE2
2621,OV1-10 R/B,2022-08-11T15:00:54.000,1096336.5573527648,15:02:14.000,81,933829.0156897828,15:03:35.000,161,1097680.1846157527,1.138,2.0,GENERATED VIA SPACE-TRACK.ORG API,2022-08-11T20:46:12,18 SPCS,1966-111C,EARTH,TEME,UTC,SGP4,2022-08-11T06:05:53.795904,14.81314988,0.0060735,93.4116,325.0759,5.2656,354.9191,0,U,999,98709,3.9922e-05,3.14e-06,0.0,7003.313,97.211,667.713,582.644,ROCKET BODY,LARGE,US,1966-12-11,AFWTR,,3534330,210031736,0 OV1-10 R/B,1  2621U 66111C   22223.25409486  .00000314  00000-0  39922-4 0  9992,2  2621  93.4116 325.0759 0060735   5.2656 354.9191 14.81314988987095
3598,ATLAS CENTAUR R/B,2022-08-11T15:08:13.000,1097778.315426534,15:09:30.000,78,966758.7374170354,15:10:47.000,154,1097940.4405477345,11.911,2.0,GENERATED VIA SPACE-TRACK.ORG API,2022-08-11T17:30:41,18 SPCS,1968-110B,EARTH,TEME,UTC,SGP4,2022-08-11T05:17:02.920416,14.54728566,0.0048808,34.9925,152.707,9.0841,351.0726,0,U,999,81958,6.5589e-05,2.68e-06,0.0,7088.383,98.988,744.845,675.651,ROCKET BODY,LARGE,US,1968-12-07,AFETR,,3534319,210007548,0 ATLAS CENTAUR R/B,1 03598U 68110B   22223.22017269  .00000268  00000-0  65589-4 0  9994,2 03598  34.9925 152.7070 0048808   9.0841 351.0726 14.54728566819584
4071,SL-8 R/B,2022-08-11T12:49:23.000,1096561.4507407043,12:51:23.000,121,698653.2128264023,12:53:24.000,241,1099501.9232012497,4.3508,2.0,GENERATED VIA SPACE-TRACK.ORG API,2022-08-11T21:46:12,18 SPCS,1969-070B,EARTH,TEME,UTC,SGP4,2022-08-11T19:26:47.888736,14.63161852,0.0014832,74.0488,117.2742,329.3139,30.7159,0,U,999,81299,6.1107e-05,2.84e-06,0.0,7061.12,98.417,693.458,672.512,ROCKET BODY,LARGE,CIS,1969-08-13,PKMTR,,3534454,210034216,0 SL-8 R/B,1  4071U 69070B   22223.81027649  .00000284  00000-0  61107-4 0  9995,2  4071  74.0488 117.2742 0014832 329.3139  30.7159 14.63161852812998
10114,SL-3 R/B,2022-08-11T17:02:44.000,1094941.2592377714,17:04:55.000,132,508272.38108538324,17:07:06.000,262,1094292.8588688795,5.9376,2.0,GENERATED VIA SPACE-TRACK.ORG API,2022-08-11T22:06:12,18 SPCS,1977-057B,EARTH,TEME,UTC,SGP4,2022-08-11T19:25:37.382016,15.19179725,0.0011969,97.4172,2.507,223.6381,136.3908,0,U,999,46891,9.2867e-05,1.888e-05,0.0,6886.455,94.788,516.563,500.078,ROCKET BODY,LARGE,CIS,1977-06-29,TTMTR,,3534509,210035602,0 SL-3 R/B,1 10114U 77057B   22223.80946044  .00001888  00000-0  92867-4 0  9990,2 10114  97.4172   2.5070 0011969 223.6381 136.3908 15.19179725468919
13553,SL-14 R/B,2022-08-11T12:00:43.000,1096459.2700260496,12:02:35.000,113,754629.1534848646,12:04:26.000,223,1096213.223893007,4.0839,2.0,GENERATED VIA SPACE-TRACK.ORG API,2022-08-11T17:30:41,18 SPCS,1982-092B,EARTH,TEME,UTC,SGP4,2022-08-11T13:20:34.514592,14.84442279,0.0020004,82.568,280.9499,309.5445,165.9913,0,U,999,13502,2.1978e-05,2.09e-06,0.0,6993.474,97.006,629.329,601.349,ROCKET BODY,LARGE,CIS,1982-09-16,PKMTR,,3534319,210009355,0 SL-14 R/B,1 13553U 82092B   22223.55595503  .00000209  00000-0  21978-4 0  9998,2 13553  82.5680 280.9499 0020004 309.5445 165.9913 14.84442279135025
13771,SL-3 R/B,2022-08-11T16:37:34.000,1098645.6676281458,16:39:47.000,134,519471.7965849613,16:42:00.000,266,1093989.9774646026,5.6739999999999995,2.0,GENERATED VIA SPACE-TRACK.ORG API,2022-08-11T22:16:12,18 SPCS,1983-003B,EARTH,TEME,UTC,SGP4,2022-08-11T19:00:58.605408,15.12072596,0.0043936,81.1674,353.3586,240.0596,119.6265,0,U,999,15784,9.8248e-05,1.753e-05,0.0,6908.017,95.234,560.233,499.531,ROCKET BODY,LARGE,CIS,1983-01-20,PKMTR,,3534515,210035650,0 SL-3 R/B,1 13771U 83003B   22223.79234497  .00001753  00000-0  98248-4 0  9990,2 13771  81.1674 353.3586 0043936 240.0596 119.6265 15.12072596157845
14552,SL-14 R/B,2022-08-11T12:20:59.000,1097680.2823763913,12:22:50.000,112,762384.2315996763,12:24:40.000,221,1097255.5287895396,4.238,2.0,GENERATED VIA SPACE-TRACK.ORG API,2022-08-11T22:26:11,18 SPCS,1983-122B,EARTH,TEME,UTC,SGP4,2022-08-11T18:52:56.802720,14.83712255,0.0018735,82.5242,114.8651,75.4922,284.837,0,U,999,8814,2.502e-05,2.32e-06,0.0,6995.768,97.054,630.739,604.526,ROCKET BODY,LARGE,CIS,1983-12-15,PKMTR,,3534533,210036405,0 SL-14 R/B,1 14552U 83122B   22223.78676855  .00000232  00000-0  25020-4 0  9996,2 14552  82.5242 114.8651 0018735  75.4922 284.8370 14.83712255 88142
15202,DELTA 1 R/B(1),2022-08-11T17:21:17.000,1095466.1374327573,17:23:01.000,105,789473.3547139441,17:24:46.000,209,1095239.2395542238,10.3267,2.0,GENERATED VIA SPACE-TRACK.ORG API,2022-08-11T17:30:41,18 SPCS,1984-088D,EARTH,TEME,UTC,SGP4,2022-08-11T08:34:26.735232,10.80841006,0.1988855,28.9121,199.1931,307.068,36.3707,0,U,999,49762,0.00013741,2.79e-06,0.0,8640.933,133.23,3981.354,544.242,ROCKET BODY,LARGE,US,1984-08-16,AFETR,,3534319,210009675,0 DELTA 1 R/B(1),1 15202U 84088D   22223.35725388  .00000279  00000-0  13741-3 0  9997,2 15202  28.9121 199.1931 1988855 307.0680  36.3707 10.80841006497628
15593,SL-14 R/B,2022-08-11T12:54:27.000,1099691.689062983,12:56:18.000,112,759553.3960431902,12:58:09.000,222,1096578.5046518114,4.0084,2.0,GENERATED VIA SPACE-TRACK.ORG API,2022-08-11T17:30:41,18 SPCS,1985-020B,EARTH,TEME,UTC,SGP4,2022-08-11T13:43:18.566688,14.84599158,0.0010309,82.539,301.8494,309.841,50.1898,0,U,999,228,2.5169e-05,2.36e-06,0.0,6992.981,96.996,622.055,607.637,ROCKET BODY,LARGE,CIS,1985-03-05,PKMTR,,3534319,210008438,0 SL-14 R/B,1 15593U 85020B   22223.57174267  .00000236  00000-0  25169-4 0  9996,2 15593  82.5390 301.8494 0010309 309.8410  50.1898 14.84599158  2286
16001,LEASAT 4 PKM,2022-08-11T12:31:18.000,1098237.6205649187,12:32:23.000,66,947616.6424717949,12:33:29.000,131,1097955.2389965272,3.7968,2.0,GENERATED VIA SPACE-TRACK.ORG API,2022-08-11T17:30:41,18 SPCS,1985-076F,EARTH,TEME,UTC,SGP4,2022-08-11T05:57:03.965184,5.46280455,0.5037616,27.3993,267.9201,176.9898,187.932,0,U,999,71493,0.00049522,1.099e-05,0.0,13618.358,263.601,14100.628,379.817,ROCKET BODY,LARGE,US,1985-08-27,AFETR,,3534319,210009935,0 LEASAT 4 PKM,1 16001U 85076F   22223.24796256  .00001099  00000-0  49522-3 0  9990,2 16001  27.3993 267.9201 5037616 176.9898 187.9320  5.46280455714939
16720,SL-14 R/B,2022-08-11T12:19:37.000,1094884.3183078754,12:21:37.000,121,683058.1578715664,12:23:38.000,241,1099425.758366331,3.313,2.0,GENERATED VIA SPACE-TRACK.ORG API,2022-08-11T17:30:41,18 SPCS,1986-034B,EARTH,TEME,UTC,SGP4,2022-08-11T13:39:40.398912,14.83593431,0.0020497,82.5538,287.205,18.4228,96.7979,0,U,999,93708,2.3234e-05,2.16e-06,0.0,6996.141,97.062,632.346,603.666,ROCKET BODY,LARGE,CIS,1986-05-15,PKMTR,,3534319,210008216,0 SL-14 R/B,1 16720U 86034B   22223.56921758  .00000216  00000-0  23234-4 0  9998,2 16720  82.5538 287.2050 0020497  18.4228  96.7979 14.83593431937085
17192,SL-14 R/B,2022-08-11T12:08:44.000,1096286.0854850155,12:10:33.000,110,775900.8465695841,12:12:21.000,217,1095025.8270924538,4.019,2.0,GENERATED VIA SPACE-TRACK.ORG API,2022-08-11T17:30:41,18 SPCS,1986-097B,EARTH,TEME,UTC,SGP4,2022-08-11T13:30:26.798688,14.83802561,0.001747,82.5066,290.4738,24.1399,97.5817,0,U,999,90653,2.3586e-05,2.2e-06,0.0,6995.484,97.048,629.57,605.128,ROCKET BODY,LARGE,CIS,1986-12-10,PKMTR,,3534319,210010981,0 SL-14 R/B,1 17192U 86097B   22223.56281017  .00000220  00000-0  23586-4 0  9993,2 17192  82.5066 290.4738 0017470  24.1399  97.5817 14.83802561906537
18153,SL-14 R/B,2022-08-11T13:59:30.000,1095891.480863097,14:01:34.000,125,644739.3448086998,14:03:37.000,247,1094958.5473832018,4.3795,2.0,GENERATED VIA SPACE-TRACK.ORG API,2022-08-11T17:30:41,18 SPCS,1987-055B,EARTH,TEME,UTC,SGP4,2022-08-11T04:20:25.014912,14.83489821,0.002183,82.5019,138.273,10.4464,349.72,0,U,999,87611,2.8055e-05,2.55e-06,0.0,6996.467,97.068,633.605,603.059,ROCKET BODY,LARGE,CIS,1987-07-01,PKMTR,,3534319,210011001,0 SL-14 R/B,1 18153U 87055B   22223.18084508  .00000255  00000-0  28055-4 0  9994,2 18153  82.5019 138.2730 0021830  10.4464 349.7200 14.83489821876118
18959,SL-14 R/B,2022-08-11T13:56:09.000,1097878.7156241396,13:58:14.000,126,641729.9288726383,14:00:18.000,249,1094237.190197983,3.872,2.0,GENERATED VIA SPACE-TRACK.ORG API,2022-08-11T21:36:11,18 SPCS,1988-020B,EARTH,TEME,UTC,SGP4,2022-08-11T17:59:33.882144,14.83633424,0.0018008,82.5395,312.4212,54.4975,305.7917,0,U,999,85952,2.3466e-05,2.18e-06,0.0,6996.016,97.059,630.479,605.282,ROCKET BODY,LARGE,CIS,1988-03-15,PKMTR,,3534417,210033270,0 SL-14 R/B,1 18959U 88020B   22223.74969771  .00000218  00000-0  23466-4 0  9997,2 18959  82.5395 312.4212 0018008  54.4975 305.7917 14.83633424859521
19884,IUS R/B(1),2022-08-11T15:03:53.000,1094007.8265050345,15:05:10.000,78,856073.6118390636,15:06:29.000,156,1098428.1883371004,10.446,2.0,GENERATED VIA SPACE-TRACK.ORG API,2022-08-11T22:06:12,18 SPCS,1989-021C,EARTH,TEME,UTC,SGP4,2022-08-11T09:24:45.828576,6.87350207,0.4403635,26.2769,301.5502,198.4205,138.6168,0,U,999,42431,0.00086929,0.00244166,-3.7676e-07,11684.67,209.5,10452.038,161.033,ROCKET BODY,LARGE,US,1989-03-13,AFETR,,3534501,210035492,0 IUS R/B(1),1 19884U 89021C   22223.39219709  .00244166 -37676-6  86929-3 0  9997,2 19884  26.2769 301.5502 4403635 198.4205 138.6168  6.87350207424319
